STARLINK-37166          
1 69195U 26114P   26195.58335648  .00047052  00000+0  13956-2 0  9992
2 69195  53.1587  71.2288 0001281  97.0708  98.2536 15.34386266  5970
STARLINK-36933          
1 69196U 26114Q   26195.35473144  .00009851  00000+0  30236-3 0  9998
2 69196  53.1590  72.3161 0001275  86.9819 273.1330 15.34394647  8982
STARLINK-37419          
1 69197U 26114R   26194.95970762  .00010227  00000+0  31341-3 0  9999
2 69197  53.1583  74.1145 0000997  75.9343 284.1771 15.34398948  8920
STARLINK-37321          
1 69198U 26114S   26194.95760057  .00022441  00000+0  67382-3 0  9999
2 69198  53.1585  74.1034 0000971  72.4417 287.6692 15.34376585  8929
STARLINK-37406          
1 69199U 26114T   26195.58335648  .00042515  00000+0  12632-2 0  9995
2 69199  53.1594  71.1697 0001110  96.1982 134.0187 15.34376946  5975
STARLINK-37761          
1 69200U 26114U   26194.95711522  .00008488  00000+0  25392-3 0  9996
2 69200  53.1596  74.1175 0000784  97.9859 262.1233 15.35405439  8926
STARLINK-37754          
1 69201U 26114V   26194.95529151  .00023493  00000+0  68270-3 0  9997
2 69201  53.1590  74.1034 0001154 104.4426 255.6705 15.35381368  8926
STARLINK-37649          
1 69202U 26114W   26194.94919353  .00032312  00000+0  96266-3 0  9990
2 69202  53.1583  74.0400 0002467  20.1481 339.9619 15.34420696  8925
STARLINK-37604          
1 69203U 26114X   26194.94929640  .00010314  00000+0  30609-3 0  9998
2 69203  53.1593  74.0537 0001084  83.2849 276.8277 15.35409415  8926
STARLINK-37669          
1 69204U 26114Y   26195.58335648  .00052202  00000+0  15467-2 0  9995
2 69204  53.1601  71.0498 0000590 100.7713 187.5880 15.34372853  5970
STARLINK-37691          
1 69205U 26114Z   26195.58335648  .00058810  00000+0  17392-2 0  9996
2 69205  53.1599  70.9698 0001308  85.2169 238.0186 15.34380397  5835
STARLINK-37671          
1 69206U 26114AA  26194.94077123  .00005561  00000+0  17563-3 0  9993
2 69206  53.1604  73.9901 0000991  89.8177 270.2940 15.34390941  8924
STARLINK-37647          
1 69207U 26114AB  26194.94287746  .00017563  00000+0  52996-3 0  9992
2 69207  53.1595  74.0057 0001567  38.5522 321.5593 15.34384860  8920
STARLINK-37562          
1 69208U 26114AC  26195.39250204  .00005661  00000+0  17852-3 0  9990
2 69208  53.1601  71.8404 0000745  88.8438 271.2650 15.34405459  9004
STARLINK-37682          
1 69209U 26114AD  26195.39041071  .00012582  00000+0  38302-3 0  9994
2 69209  53.1606  71.8145 0001282 102.4044 257.7102 15.34388651  8997
STARLINK-37402          
1 69210U 26114AE  26195.38830685  .00016336  00000+0  49362-3 0  9991
2 69210  53.1598  71.8024 0001234  91.2936 268.8208 15.34395962  8990
STARLINK-37613          
1 69211U 26115A   26195.62332701  .00022584  00000+0  69900-3 0  9998
2 69211  97.2837 212.7594 0001550  81.2227 278.9191 15.33479939  8895
STARLINK-37713          
1 69212U 26115B   26195.61790195  .00007807  00000+0  24393-3 0  9991
2 69212  97.2835 212.6168 0001360 123.4178 236.7195 15.33440378  8883
STARLINK-37716          
1 69213U 26115C   26195.62061359  .00016792  00000+0  52093-3 0  9997
2 69213  97.2833 212.6153 0001934  96.9723 263.1740 15.33467092  8885
STARLINK-37620          
1 69214U 26115D   26195.61245902  .00018372  00000+0  56975-3 0  9994
2 69214  97.2847 212.6207 0001664  84.3121 275.8311 15.33460162  8889
STARLINK-37700          
1 69215U 26115E   26195.60974324  .00013158  00000+0  40912-3 0  9992
2 69215  97.2848 212.6216 0000703 143.6919 216.4372 15.33449898  8889
STARLINK-37766          
1 69216U 26115F   26195.60702583  .00011116  00000+0  34617-3 0  9996
2 69216  97.2837 212.6339 0001342  98.5005 261.6390 15.33443194  8883
STARLINK-37763          
1 69217U 26115G   26195.60430788  .00005451  00000+0  17107-3 0  9992
2 69217  97.2837 212.6356 0001614  97.7477 262.3950 15.33439793  8889
STARLINK-37724          
1 69218U 26115H   26195.60158771  .00007759  00000+0  24244-3 0  9995
2 69218  97.2840 212.6425 0001511 116.0320 244.1079 15.33442412  8881
STARLINK-37758          
1 69219U 26115J   26195.59614936  .00008575  00000+0  26765-3 0  9991
2 69219  97.2838 212.6489 0001271  98.8519 261.2868 15.33441403  8884
STARLINK-37201          
1 69220U 26115K   26195.59887298  .00007642  00000+0  23867-3 0  9990
2 69220  97.2842 212.6451 0001901 121.5034 238.6395 15.33459556  8887
STARLINK-37728          
1 69221U 26115L   26195.59343063  .00009325  00000+0  29080-3 0  9991
2 69221  97.2831 212.6512 0001480 106.6320 253.5086 15.33444680  8883
STARLINK-37760          
1 69222U 26115M   26195.59071071  .00007400  00000+0  23134-3 0  9995
2 69222  97.2840 212.6571 0001119 114.4663 245.6697 15.33440852  8882
STARLINK-37759          
1 69223U 26115N   26195.58799177  .00009493  00000+0  29602-3 0  9999
2 69223  97.2836 212.6573 0001130  89.0298 271.1074 15.33443934  8881
STARLINK-37725          
1 69224U 26115P   26195.58527158  .00008537  00000+0  26647-3 0  9992
2 69224  97.2834 212.6595 0000987  95.2745 264.8610 15.33445141  8897
