OBJECT_NAME,OBJECT_ID,EPOCH,MEAN_MOTION,ECCENTRICITY,INCLINATION,RA_OF_ASC_NODE,ARG_OF_PERICENTER,MEAN_ANOMALY,EPHEMERIS_TYPE,CLASSIFICATION_TYPE,NORAD_CAT_ID,ELEMENT_SET_NO,REV_AT_EPOCH,BSTAR,MEAN_MOTION_DOT,MEAN_MOTION_DDOT
STARLINK-37166,2026-114P,2026-07-14T14:00:01.999872,15.34386266,.0001281,53.1587,71.2288,97.0708,98.2536,0,U,69195,999,597,.13955888E-2,.47052E-3,0
STARLINK-36933,2026-114Q,2026-07-14T08:30:48.796416,15.34394647,.00012755,53.1590,72.3161,86.9819,273.1330,0,U,69196,999,898,.30236246E-3,.9851E-4,0
STARLINK-37419,2026-114R,2026-07-13T23:01:58.738368,15.34398948,.00009978,53.1583,74.1145,75.9343,284.1771,0,U,69197,999,892,.31340657E-3,.10227E-3,0
STARLINK-37321,2026-114S,2026-07-13T22:58:56.689248,15.34376585,.00009719,53.1585,74.1034,72.4417,287.6692,0,U,69198,999,892,.67382042E-3,.22441E-3,0
STARLINK-37406,2026-114T,2026-07-14T14:00:01.999872,15.34376946,.000111,53.1594,71.1697,96.1982,134.0187,0,U,69199,999,597,.12632286E-2,.42515E-3,0
STARLINK-37761,2026-114U,2026-07-13T22:58:14.755008,15.35405439,.00007848,53.1596,74.1175,97.9859,262.1233,0,U,69200,999,892,.2539195E-3,.8488E-4,0
STARLINK-37754,2026-114V,2026-07-13T22:55:37.186464,15.35381368,.00011547,53.1590,74.1034,104.4426,255.6705,0,U,69201,999,892,.68269907E-3,.23493E-3,0
STARLINK-37649,2026-114W,2026-07-13T22:46:50.320992,15.34420696,.00024671,53.1583,74.0400,20.1481,339.9619,0,U,69202,999,892,.96265978E-3,.32312E-3,0
STARLINK-37604,2026-114X,2026-07-13T22:46:59.208960,15.35409415,.00010847,53.1593,74.0537,83.2849,276.8277,0,U,69203,999,892,.30608838E-3,.10314E-3,0
STARLINK-37669,2026-114Y,2026-07-14T14:00:01.999872,15.34372853,.00005906,53.1601,71.0498,100.7713,187.5880,0,U,69204,999,597,.15467473E-2,.52202E-3,0
STARLINK-37691,2026-114Z,2026-07-14T14:00:01.999872,15.34380397,.00013082,53.1599,70.9698,85.2169,238.0186,0,U,69205,999,583,.1739189E-2,.5881E-3,0
STARLINK-37671,2026-114AA,2026-07-13T22:34:42.634272,15.34390941,.00009917,53.1604,73.9901,89.8177,270.2940,0,U,69206,999,892,.17563489E-3,.5561E-4,0
STARLINK-37647,2026-114AB,2026-07-13T22:37:44.612544,15.34384860,.00015678,53.1595,74.0057,38.5522,321.5593,0,U,69207,999,892,.52995609E-3,.17563E-3,0
STARLINK-37562,2026-114AC,2026-07-14T09:25:12.176256,15.34405459,.00007455,53.1601,71.8404,88.8438,271.2650,0,U,69208,999,900,.17851542E-3,.5661E-4,0
STARLINK-37682,2026-114AD,2026-07-14T09:22:11.485344,15.34388651,.00012822,53.1606,71.8145,102.4044,257.7102,0,U,69209,999,899,.38302435E-3,.12582E-3,0
STARLINK-37402,2026-114AE,2026-07-14T09:19:09.711840,15.34395962,.00012348,53.1598,71.8024,91.2936,268.8208,0,U,69210,999,899,.49362129E-3,.16336E-3,0
STARLINK-37613,2026-115A,2026-07-14T14:57:35.453664,15.33479939,.00015501,97.2837,212.7594,81.2227,278.9191,0,U,69211,999,889,.69900196E-3,.22584E-3,0
STARLINK-37713,2026-115B,2026-07-14T14:49:46.728480,15.33440378,.00013607,97.2835,212.6168,123.4178,236.7195,0,U,69212,999,888,.24393413E-3,.7807E-4,0
STARLINK-37716,2026-115C,2026-07-14T14:53:41.014176,15.33467092,.00019342,97.2833,212.6153,96.9723,263.1740,0,U,69213,999,888,.52093192E-3,.16792E-3,0
STARLINK-37620,2026-115D,2026-07-14T14:41:56.459328,15.33460162,.00016644,97.2847,212.6207,84.3121,275.8311,0,U,69214,999,888,.56975048E-3,.18372E-3,0
STARLINK-37700,2026-115E,2026-07-14T14:38:01.815936,15.33449898,.00007037,97.2848,212.6216,143.6919,216.4372,0,U,69215,999,888,.40912014E-3,.13158E-3,0
STARLINK-37766,2026-115F,2026-07-14T14:34:07.031712,15.33443194,.0001342,97.2837,212.6339,98.5005,261.6390,0,U,69216,999,888,.34616674E-3,.11116E-3,0
STARLINK-37763,2026-115G,2026-07-14T14:30:12.200832,15.33439793,.00016146,97.2837,212.6356,97.7477,262.3950,0,U,69217,999,888,.17106585E-3,.5451E-4,0
STARLINK-37724,2026-115H,2026-07-14T14:26:17.178144,15.33442412,.00015114,97.2840,212.6425,116.0320,244.1079,0,U,69218,999,888,.24244273E-3,.7759E-4,0
STARLINK-37758,2026-115J,2026-07-14T14:18:27.304704,15.33441403,.00012716,97.2838,212.6489,98.8519,261.2868,0,U,69219,999,888,.26765329E-3,.8575E-4,0
STARLINK-37201,2026-115K,2026-07-14T14:22:22.625472,15.33459556,.00019013,97.2842,212.6451,121.5034,238.6395,0,U,69220,999,888,.23867139E-3,.7642E-4,0
STARLINK-37728,2026-115L,2026-07-14T14:14:32.406432,15.33444680,.00014809,97.2831,212.6512,106.6320,253.5086,0,U,69221,999,888,.29079944E-3,.9325E-4,0
STARLINK-37760,2026-115M,2026-07-14T14:10:37.405344,15.33440852,.00011195,97.2840,212.6571,114.4663,245.6697,0,U,69222,999,888,.23133782E-3,.74E-4,0
STARLINK-37759,2026-115N,2026-07-14T14:06:42.488928,15.33443934,.00011302,97.2836,212.6573,89.0298,271.1074,0,U,69223,999,888,.29602182E-3,.9493E-4,0
STARLINK-37725,2026-115P,2026-07-14T14:02:47.464512,15.33445141,.00009874,97.2834,212.6595,95.2745,264.8610,0,U,69224,999,889,.26646637E-3,.8537E-4,0
